[{"OBJECT_NAME":"STARLINK-32001","OBJECT_ID":"2024-117V","EPOCH":"2025-09-23T19:59:24.246528","MEAN_MOTION":15.30182413,"ECCENTRICITY":0.00011958,"INCLINATION":53.1604,"RA_OF_ASC_NODE":91.8898,"ARG_OF_PERICENTER":93.3996,"MEAN_ANOMALY":266.7142,"EPHEMERIS_TYPE":0,"CLASSIFICATION_TYPE":"U","NORAD_CAT_ID":60110,"ELEMENT_SET_NO":999,"REV_AT_EPOCH":7134,"BSTAR":-3.4057289e-5,"MEAN_MOTION_DOT":-1.367e-5,"MEAN_MOTION_DDOT":0},{"OBJECT_NAME":"STARLINK-32015","OBJECT_ID":"2024-117W","EPOCH":"2025-09-23T19:50:17.461536","MEAN_MOTION":15.30180965,"ECCENTRICITY":0.00010164,"INCLINATION":53.1603,"RA_OF_ASC_NODE":91.8487,"ARG_OF_PERICENTER":98.5336,"MEAN_ANOMALY":261.578,"EPHEMERIS_TYPE":0,"CLASSIFICATION_TYPE":"U","NORAD_CAT_ID":60111,"ELEMENT_SET_NO":999,"REV_AT_EPOCH":7134,"BSTAR":-5.3847475e-5,"MEAN_MOTION_DOT":-1.952e-5,"MEAN_MOTION_DDOT":0},{"OBJECT_NAME":"STARLINK-32024","OBJECT_ID":"2024-117X","EPOCH":"2025-09-24T05:32:50.578080","MEAN_MOTION":15.30182571,"ECCENTRICITY":0.0001172,"INCLINATION":53.16,"RA_OF_ASC_NODE":90.1093,"ARG_OF_PERICENTER":91.3193,"MEAN_ANOMALY":268.7942,"EPHEMERIS_TYPE":0,"CLASSIFICATION_TYPE":"U","NORAD_CAT_ID":60112,"ELEMENT_SET_NO":999,"REV_AT_EPOCH":7140,"BSTAR":-2.0102743e-5,"MEAN_MOTION_DOT":-9.54e-6,"MEAN_MOTION_DDOT":0},{"OBJECT_NAME":"STARLINK-11201 [DTC]","OBJECT_ID":"2024-118A","EPOCH":"2025-09-23T11:01:58.154304","MEAN_MOTION":15.69723545,"ECCENTRICITY":0.00011232,"INCLINATION":53.1588,"RA_OF_ASC_NODE":325.9625,"ARG_OF_PERICENTER":79.1115,"MEAN_ANOMALY":281.0029,"EPHEMERIS_TYPE":0,"CLASSIFICATION_TYPE":"U","NORAD_CAT_ID":60113,"ELEMENT_SET_NO":999,"REV_AT_EPOCH":7172,"BSTAR":2.6143908e-5,"MEAN_MOTION_DOT":2.581e-5,"MEAN_MOTION_DDOT":0},{"OBJECT_NAME":"STARLINK-11198 [DTC]","OBJECT_ID":"2024-118B","EPOCH":"2025-09-24T03:43:28.362432","MEAN_MOTION":15.69692257,"ECCENTRICITY":0.00012752,"INCLINATION":53.1587,"RA_OF_ASC_NODE":322.4777,"ARG_OF_PERICENTER":83.8843,"MEAN_ANOMALY":276.2321,"EPHEMERIS_TYPE":0,"CLASSIFICATION_TYPE":"U","NORAD_CAT_ID":60114,"ELEMENT_SET_NO":999,"REV_AT_EPOCH":7183,"BSTAR":-1.3543464e-5,"MEAN_MOTION_DOT":-2.228e-5,"MEAN_MOTION_DDOT":0},{"OBJECT_NAME":"STARLINK-11112 [DTC]","OBJECT_ID":"2024-118C","EPOCH":"2025-09-23T10:47:50.416512","MEAN_MOTION":15.69727498,"ECCENTRICITY":0.00012097,"INCLINATION":53.1585,"RA_OF_ASC_NODE":325.897,"ARG_OF_PERICENTER":83.9561,"MEAN_ANOMALY":276.1595,"EPHEMERIS_TYPE":0,"CLASSIFICATION_TYPE":"U","NORAD_CAT_ID":60115,"ELEMENT_SET_NO":999,"REV_AT_EPOCH":7172,"BSTAR":2.6719831e-5,"MEAN_MOTION_DOT":2.652e-5,"MEAN_MOTION_DDOT":0},{"OBJECT_NAME":"STARLINK-11210 [DTC]","OBJECT_ID":"2024-118D","EPOCH":"2025-09-24T03:29:20.421600","MEAN_MOTION":15.69695024,"ECCENTRICITY":0.00011446,"INCLINATION":53.1594,"RA_OF_ASC_NODE":322.4135,"ARG_OF_PERICENTER":77.4916,"MEAN_ANOMALY":282.623,"EPHEMERIS_TYPE":0,"CLASSIFICATION_TYPE":"U","NORAD_CAT_ID":60116,"ELEMENT_SET_NO":999,"REV_AT_EPOCH":7183,"BSTAR":-4.403866e-6,"MEAN_MOTION_DOT":-1.122e-5,"MEAN_MOTION_DDOT":0},{"OBJECT_NAME":"STARLINK-11203 [DTC]","OBJECT_ID":"2024-118E","EPOCH":"2025-09-24T03:22:16.663296","MEAN_MOTION":15.69696719,"ECCENTRICITY":0.00011466,"INCLINATION":53.1591,"RA_OF_ASC_NODE":322.3804,"ARG_OF_PERICENTER":89.6299,"MEAN_ANOMALY":270.485,"EPHEMERIS_TYPE":0,"CLASSIFICATION_TYPE":"U","NORAD_CAT_ID":60117,"ELEMENT_SET_NO":999,"REV_AT_EPOCH":7183,"BSTAR":-1.1892131e-5,"MEAN_MOTION_DOT":-2.028e-5,"MEAN_MOTION_DDOT":0},{"OBJECT_NAME":"STARLINK-11177 [DTC]","OBJECT_ID":"2024-118F","EPOCH":"2025-09-23T21:08:28.497696","MEAN_MOTION":15.69699211,"ECCENTRICITY":9.372e-5,"INCLINATION":53.1574,"RA_OF_ASC_NODE":323.6018,"ARG_OF_PERICENTER":82.6735,"MEAN_ANOMALY":277.4389,"EPHEMERIS_TYPE":0,"CLASSIFICATION_TYPE":"U","NORAD_CAT_ID":60118,"ELEMENT_SET_NO":999,"REV_AT_EPOCH":7179,"BSTAR":-1.9916957e-5,"MEAN_MOTION_DOT":-2.999e-5,"MEAN_MOTION_DDOT":0},{"OBJECT_NAME":"STARLINK-11127 [DTC]","OBJECT_ID":"2024-118G","EPOCH":"2025-09-24T07:43:13.179648","MEAN_MOTION":15.69674832,"ECCENTRICITY":0.00013438,"INCLINATION":53.1594,"RA_OF_ASC_NODE":321.3716,"ARG_OF_PERICENTER":105.7118,"MEAN_ANOMALY":254.4048,"EPHEMERIS_TYPE":0,"CLASSIFICATION_TYPE":"U","NORAD_CAT_ID":60119,"ELEMENT_SET_NO":999,"REV_AT_EPOCH":7186,"BSTAR":-3.8516828e-5,"MEAN_MOTION_DOT":-5.245e-5,"MEAN_MOTION_DDOT":0},{"OBJECT_NAME":"STARLINK-11164 [DTC]","OBJECT_ID":"2024-118H","EPOCH":"2025-09-24T07:36:04.964832","MEAN_MOTION":15.69732792,"ECCENTRICITY":7.793e-5,"INCLINATION":53.1585,"RA_OF_ASC_NODE":321.3372,"ARG_OF_PERICENTER":87.6169,"MEAN_ANOMALY":272.4938,"EPHEMERIS_TYPE":0,"CLASSIFICATION_TYPE":"U","NORAD_CAT_ID":60120,"ELEMENT_SET_NO":999,"REV_AT_EPOCH":7186,"BSTAR":2.9327362e-5,"MEAN_MOTION_DOT":2.969e-5,"MEAN_MOTION_DDOT":0},{"OBJECT_NAME":"STARLINK-11119 [DTC]","OBJECT_ID":"2024-118J","EPOCH":"2025-09-24T04:11:34.505088","MEAN_MOTION":15.69694447,"ECCENTRICITY":0.00014309,"INCLINATION":53.1571,"RA_OF_ASC_NODE":321.8705,"ARG_OF_PERICENTER":55.291,"MEAN_ANOMALY":304.8243,"EPHEMERIS_TYPE":0,"CLASSIFICATION_TYPE":"U","NORAD_CAT_ID":60121,"ELEMENT_SET_NO":999,"REV_AT_EPOCH":7184,"BSTAR":2.713482e-6,"MEAN_MOTION_DOT":-2.6e-6,"MEAN_MOTION_DDOT":0},{"OBJECT_NAME":"STARLINK-11157 [DTC]","OBJECT_ID":"2024-118K","EPOCH":"2025-09-24T04:18:38.207232","MEAN_MOTION":15.69700411,"ECCENTRICITY":0.00013378,"INCLINATION":53.1577,"RA_OF_ASC_NODE":321.9014,"ARG_OF_PERICENTER":79.5361,"MEAN_ANOMALY":280.5808,"EPHEMERIS_TYPE":0,"CLASSIFICATION_TYPE":"U","NORAD_CAT_ID":60122,"ELEMENT_SET_NO":999,"REV_AT_EPOCH":7184,"BSTAR":-3.922843e-6,"MEAN_MOTION_DOT":-1.064e-5,"MEAN_MOTION_DDOT":0},{"OBJECT_NAME":"STARLINK-11162 [DTC]","OBJECT_ID":"2024-118L","EPOCH":"2025-09-23T09:44:16.850976","MEAN_MOTION":15.69715982,"ECCENTRICITY":0.00010899,"INCLINATION":53.1585,"RA_OF_ASC_NODE":325.6043,"ARG_OF_PERICENTER":94.1682,"MEAN_ANOMALY":265.946,"EPHEMERIS_TYPE":0,"CLASSIFICATION_TYPE":"U","NORAD_CAT_ID":60123,"ELEMENT_SET_NO":999,"REV_AT_EPOCH":7172,"BSTAR":-2.45772e-7,"MEAN_MOTION_DOT":-6.18e-6,"MEAN_MOTION_DDOT":0},{"OBJECT_NAME":"STARLINK-11161 [DTC]","OBJECT_ID":"2024-118M","EPOCH":"2025-09-24T03:57:36.024192","MEAN_MOTION":15.69693978,"ECCENTRICITY":0.00010914,"INCLINATION":53.1586,"RA_OF_ASC_NODE":322.5382,"ARG_OF_PERICENTER":77.726,"MEAN_ANOMALY":282.388,"EPHEMERIS_TYPE":0,"CLASSIFICATION_TYPE":"U","NORAD_CAT_ID":60124,"ELEMENT_SET_NO":999,"REV_AT_EPOCH":7183,"BSTAR":-2.0471579e-5,"MEAN_MOTION_DOT":-3.066e-5,"MEAN_MOTION_DDOT":0},{"OBJECT_NAME":"STARLINK-11160 [DTC]","OBJECT_ID":"2024-118N","EPOCH":"2025-09-24T04:25:41.831616","MEAN_MOTION":15.69700144,"ECCENTRICITY":0.00012705,"INCLINATION":53.1571,"RA_OF_ASC_NODE":321.933,"ARG_OF_PERICENTER":87.7257,"MEAN_ANOMALY":272.3906,"EPHEMERIS_TYPE":0,"CLASSIFICATION_TYPE":"U","NORAD_CAT_ID":60125,"ELEMENT_SET_NO":999,"REV_AT_EPOCH":7184,"BSTAR":-1.79135e-5,"MEAN_MOTION_DOT":-2.757e-5,"MEAN_MOTION_DDOT":0}]
