60110,STARLINK-32001,2024,94.11,-1.0,+,53.16,Active,0,LEO,USA,USA,Unknown,Unknown,Unknown,1 60110U 24117V   25266.83291952 -.00001367  00000+0 -34057-4 0  9994,2 60110  53.1604  91.8898 0001195  93.3996 266.7142 15.30182413 71348,15.30182413,0.0001195,LEO
60111,STARLINK-32015,2024,94.11,-1.0,+,53.16,Active,0,LEO,USA,USA,Unknown,Unknown,Unknown,1 60111U 24117W   25266.82659099 -.00001952  00000+0 -53847-4 0  9992,2 60111  53.1603  91.8487 0001016  98.5336 261.5780 15.30180965 71340,15.30180965,0.0001016,LEO
60112,STARLINK-32024,2024,94.11,-1.0,+,53.16,Active,0,LEO,USA,USA,Unknown,Unknown,Unknown,1 60112U 24117X   25267.23114095 -.00000954  00000+0 -20103-4 0  9991,2 60112  53.1600  90.1093 0001172  91.3193 268.7942 15.30182571 71409,15.30182571,0.0001172,LEO
60113,STARLINK-11201 [DTC],2024,91.73,-1.0,+,53.16,Active,0,LEO,USA,USA,Unknown,Unknown,Unknown,1 60113U 24118A   25266.45970086  .00002581  00000+0  26144-4 0  9993,2 60113  53.1588 325.9625 0001123  79.1115 281.0029 15.69723545 71722,15.69723545,0.0001123,LEO
60114,STARLINK-11198 [DTC],2024,91.74,-1.0,+,53.16,Active,0,LEO,USA,USA,Unknown,Unknown,Unknown,1 60114U 24118B   25267.15518938 -.00002228  00000+0 -13543-4 0  9995,2 60114  53.1587 322.4777 0001275  83.8843 276.2321 15.69692257 71838,15.69692257,0.0001275,LEO
60115,STARLINK-11112 [DTC],2024,91.74,-1.0,+,53.16,Active,0,LEO,USA,USA,Unknown,Unknown,Unknown,1 60115U 24118C   25266.44988908  .00002652  00000+0  26720-4 0  9995,2 60115  53.1585 325.8970 0001209  83.9561 276.1595 15.69727498 71720,15.69727498,0.0001209,LEO
60116,STARLINK-11210 [DTC],2024,91.74,-1.0,+,53.16,Active,0,LEO,USA,USA,Unknown,Unknown,Unknown,1 60116U 24118D   25267.14537525 -.00001122  00000+0 -44039-5 0  9996,2 60116  53.1594 322.4135 0001144  77.4916 282.6230 15.69695024 71836,15.69695024,0.0001144,LEO
60117,STARLINK-11203 [DTC],2024,91.74,-1.0,+,53.16,Active,0,LEO,USA,USA,Unknown,Unknown,Unknown,1 60117U 24118E   25267.14047064 -.00002028  00000+0 -11892-4 0  9997,2 60117  53.1591 322.3804 0001146  89.6299 270.4850 15.69696719 71832,15.69696719,0.0001146,LEO
60118,STARLINK-11177 [DTC],2024,91.74,-1.0,+,53.16,Active,0,LEO,USA,USA,Unknown,Unknown,Unknown,1 60118U 24118F   25266.88088539 -.00002999  00000+0 -19917-4 0  9993,2 60118  53.1574 323.6018 0000937  82.6735 277.4389 15.69699211 71799,15.69699211,9.37e-05,LEO
60119,STARLINK-11127 [DTC],2024,91.74,-1.0,+,53.16,Active,0,LEO,USA,USA,Unknown,Unknown,Unknown,1 60119U 24118G   25267.32168032 -.00005245  00000+0 -38517-4 0  9995,2 60119  53.1594 321.3716 0001343 105.7118 254.4048 15.69674832 71863,15.69674832,0.0001343,LEO
60120,STARLINK-11164 [DTC],2024,91.73,-1.0,+,53.16,Active,0,LEO,USA,USA,Unknown,Unknown,Unknown,1 60120U 24118H   25267.31672413  .00002969  00000+0  29327-4 0  9996,2 60120  53.1585 321.3372 0000779  87.6169 272.4938 15.69732792 71867,15.69732792,7.79e-05,LEO
60121,STARLINK-11119 [DTC],2024,91.74,-1.0,+,53.16,Active,0,LEO,USA,USA,Unknown,Unknown,Unknown,1 60121U 24118J   25267.17470492 -.00000260  00000+0  27135-5 0  9993,2 60121  53.1571 321.8705 0001430  55.2910 304.8243 15.69694447 71849,15.69694447,0.000143,LEO
60122,STARLINK-11157 [DTC],2024,91.74,-1.0,+,53.16,Active,0,LEO,USA,USA,Unknown,Unknown,Unknown,1 60122U 24118K   25267.17960888 -.00001064  00000+0 -39228-5 0  9997,2 60122  53.1577 321.9014 0001337  79.5361 280.5808 15.69700411 71841,15.69700411,0.0001337,LEO
60123,STARLINK-11162 [DTC],2024,91.74,-1.0,+,53.16,Active,0,LEO,USA,USA,Unknown,Unknown,Unknown,1 60123U 24118L   25266.40575059 -.00000618  00000+0 -24577-6 0  9991,2 60123  53.1585 325.6043 0001089  94.1682 265.9460 15.69715982 71724,15.69715982,0.0001089,LEO
60124,STARLINK-11161 [DTC],2024,91.74,-1.0,+,53.16,Active,0,LEO,USA,USA,Unknown,Unknown,Unknown,1 60124U 24118M   25267.16500028 -.00003066  00000+0 -20472-4 0  9998,2 60124  53.1586 322.5382 0001091  77.7260 282.3880 15.69693978 71831,15.69693978,0.0001091,LEO
60125,STARLINK-11160 [DTC],2024,91.74,-1.0,+,53.16,Active,0,LEO,USA,USA,Unknown,Unknown,Unknown,1 60125U 24118N   25267.18451194 -.00002757  00000+0 -17913-4 0  9992,2 60125  53.1571 321.9330 0001270  87.7257 272.3906 15.69700144 71841,15.69700144,0.000127,LEO
